FENGYUN 3D              
1 43010U 17072A   26188.86691772 -.00000282  00000+0 -11139-3 0  9997
2 43010  99.0141 163.6638 0001914  28.8509 331.2772 14.19742396447921
NOAA 20 (JPSS-1)        
1 43013U 17073A   26188.72430399  .00000045  00000+0  42393-4 0  9994
2 43013  98.7773 128.0047 0001101 130.3272 229.8000 14.19515485447387
GOES 17                 
1 43226U 18022A   26188.62637453 -.00000168  00000+0  00000+0 0  9995
2 43226   0.9860  85.3854 0000607  61.6562 274.5511  1.00271803 30622
SENTINEL-3B             
1 43437U 18039A   26188.73775075  .00000071  00000+0  47424-4 0  9990
2 43437  98.6239 255.9743 0000978 119.1768 240.9511 14.26740626427050
FENGYUN 2H              
1 43491U 18050A   26188.87359794 -.00000115  00000+0  00000+0 0  9998
2 43491   3.0811  78.8387 0002057 124.8438 115.8872  1.00268461 29642
METOP-C                 
1 43689U 18087A   26188.76190368  .00000070  00000+0  51615-4 0  9997
2 43689  98.6633 247.9884 0002200 103.2412 256.9011 14.21517661397755
GEO-KOMPSAT-2A          
1 43823U 18100A   26188.74071647 -.00000328  00000+0  00000+0 0  9993
2 43823   0.0405 143.2938 0002313 316.4339 220.8975  1.00270880 27838
METEOR-M2 2             
1 44387U 19038A   26188.89700372 -.00000307  00000+0 -11310-3 0  9998
2 44387  98.9160 176.4887 0001159  17.4121 342.7097 14.24370319364249
ARKTIKA-M 1             
1 47719U 21016A   26187.93041206 -.00000246  00000+0  00000+0 0  9998
2 47719  63.2564  54.7781 7294848 270.0184  14.5557  2.00615031 39188
FENGYUN 3E              
1 49008U 21062A   26188.84849505  .00000065  00000+0  51398-4 0  9990
2 49008  98.7501 192.0261 0002512  52.0138 308.1265 14.19906013259514
GOES 18                 
1 51850U 22021A   26188.68819478  .00000112  00000+0  00000+0 0  9994
2 51850   0.0064 156.3031 0000541  16.7420 223.3484  1.00271457  6795
NOAA 21 (JPSS-2)        
1 54234U 22150A   26188.75672206  .00000033  00000+0  36338-4 0  9990
2 54234  98.7060 127.2004 0002638 117.7169 242.4275 14.19540264189467
METEOSAT-12 (MTG-I1)    
1 54743U 22170C   26188.71532159  .00000007  00000+0  00000+0 0  9998
2 54743   0.7171  18.3212 0003972  82.3437  82.3271  1.00266664 13183
TIANMU-1 03             
1 55973U 23039A   26188.80588590  .00009958  00000+0  19308-3 0  9998
2 55973  97.5247   3.5917 0003194  45.1577 314.9932 15.47892574184024
TIANMU-1 04             
1 55974U 23039B   26188.85189282  .00010466  00000+0  19851-3 0  9998
2 55974  97.5180   2.7955 0003710  39.3565 320.7955 15.48511315184044
TIANMU-1 05             
1 55975U 23039C   26188.85230753  .00010522  00000+0  20442-3 0  9990
2 55975  97.5225   3.2477 0003552  65.3288 294.8332 15.47816773184017
TIANMU-1 06             
1 55976U 23039D   26188.85659186  .00010377  00000+0  19753-3 0  9997
2 55976  97.5232   3.9089 0003707  58.6286 301.5326 15.48409455184045
FENGYUN 3G              
1 56232U 23055A   26188.69506436  .00015570  00000+0  24641-3 0  9994
2 56232  49.9916 240.2815 0007222  22.5556 337.5727 15.53556033183190
METEOR-M2 3             
1 57166U 23091A   26188.82583586 -.00000024  00000+0  82300-5 0  9994
2 57166  98.6077 243.3807 0005111 106.7340 253.4400 14.24048507157455
TIANMU-1 07             
1 57399U 23101A   26188.83351539  .00004160  00000+0  14554-3 0  9994
2 57399  97.2582 239.0292 0004137  79.5121 280.6586 15.30056949164801
TIANMU-1 08             
1 57400U 23101B   26188.86550027  .00004293  00000+0  15008-3 0  9995
2 57400  97.2571 238.8280 0005183  65.1014 295.0765 15.30061485164800
TIANMU-1 09             
1 57401U 23101C   26188.84845159  .00004318  00000+0  15077-3 0  9991
2 57401  97.2529 238.2167 0004721  81.2770 278.9005 15.30100289164800
TIANMU-1 10             
1 57402U 23101D   26188.88186959  .00004344  00000+0  15174-3 0  9999
2 57402  97.2608 239.3208 0006144  73.5095 286.6821 15.30073539164801
FENGYUN 3F              
1 57490U 23111A   26188.83191861  .00000013  00000+0  26540-4 0  9999
2 57490  98.6828 258.4552 0001404  79.9133 280.2201 14.19942632151799
ARKTIKA-M 2             
1 58584U 23198A   26187.70098855  .00000205  00000+0  00000+0 0  9994
2 58584  63.2193 152.1833 6907948 267.3642  18.7597  2.00609243 18712
TIANMU-1 11             
1 58645U 23205A   26188.89070081  .00003581  00000+0  13694-3 0  9990
2 58645  97.3447 210.1243 0006856 295.2806  64.7723 15.27213964140682
TIANMU-1 12             
1 58646U 23205B   26188.86228822  .00003859  00000+0  14817-3 0  9992
2 58646  97.3435 209.8462 0005481 268.7232  91.3379 15.27043822140664
TIANMU-1 13             
1 58647U 23205C   26188.89569441  .00003634  00000+0  13972-3 0  9993
2 58647  97.3463 210.1565 0005174 244.5017 115.5687 15.27036485140665
TIANMU-1 14             
1 58648U 23205D   26188.88029694  .00003713  00000+0  14250-3 0  9992
2 58648  97.3399 209.3069 0005868 252.4804 107.5794 15.27080575140664
TIANMU-1 19             
1 58660U 23208A   26188.86524387  .00005788  00000+0  19048-3 0  9990
2 58660  97.4514 305.2768 0003926 227.7671 132.3238 15.31898701140493
TIANMU-1 20             
1 58661U 23208B   26188.88699696  .00005654  00000+0  17933-3 0  9992
2 58661  97.4457 305.9556 0005785 242.1734 117.8923 15.33087833140596
