OBJECT_NAME,OBJECT_ID,EPOCH,MEAN_MOTION,ECCENTRICITY,INCLINATION,RA_OF_ASC_NODE,ARG_OF_PERICENTER,MEAN_ANOMALY,EPHEMERIS_TYPE,CLASSIFICATION_TYPE,NORAD_CAT_ID,ELEMENT_SET_NO,REV_AT_EPOCH,BSTAR,MEAN_MOTION_DOT,MEAN_MOTION_DDOT
FENGYUN 3D,2017-072A,2026-07-07T20:48:21.691008,14.19742396,.0001914,99.0141,163.6638,28.8509,331.2772,0,U,43010,999,44792,-.11139E-3,-.282E-5,0
NOAA 20 (JPSS-1),2017-073A,2026-07-07T17:22:59.864736,14.19515485,.0001101,98.7773,128.0047,130.3272,229.8000,0,U,43013,999,44738,.42393E-4,.45E-6,0
GOES 17,2018-022A,2026-07-07T15:01:58.759392,1.00271803,.0000607,0.9860,85.3854,61.6562,274.5511,0,U,43226,999,3062,0,-.168E-5,0
SENTINEL-3B,2018-039A,2026-07-07T17:42:21.664800,14.26740626,.0000978,98.6239,255.9743,119.1768,240.9511,0,U,43437,999,42705,.47424E-4,.71E-6,0
FENGYUN 2H,2018-050A,2026-07-07T20:57:58.862016,1.00268461,.0002057,3.0811,78.8387,124.8438,115.8872,0,U,43491,999,2964,0,-.115E-5,0
METOP-C,2018-087A,2026-07-07T18:17:08.477952,14.21517661,.00022,98.6633,247.9884,103.2412,256.9011,0,U,43689,999,39775,.51615E-4,.7E-6,0
GEO-KOMPSAT-2A,2018-100A,2026-07-07T17:46:37.903008,1.00270880,.0002313,0.0405,143.2938,316.4339,220.8975,0,U,43823,999,2783,0,-.328E-5,0
METEOR-M2 2,2019-038A,2026-07-07T21:31:41.121408,14.24370319,.0001159,98.9160,176.4887,17.4121,342.7097,0,U,44387,999,36424,-.1131E-3,-.307E-5,0
ARKTIKA-M 1,2021-016A,2026-07-06T22:19:47.601984,2.00615031,.72948481,63.2564,54.7781,270.0184,14.5557,0,U,47719,999,3918,0,-.246E-5,0
FENGYUN 3E,2021-062A,2026-07-07T20:21:49.972320,14.19906013,.0002512,98.7501,192.0261,52.0138,308.1265,0,U,49008,999,25951,.51398E-4,.65E-6,0
GOES 18,2022-021A,2026-07-07T16:31:00.028992,1.00271457,.0000541,0.0064,156.3031,16.7420,223.3484,0,U,51850,999,679,0,.112E-5,0
NOAA 21 (JPSS-2),2022-150A,2026-07-07T18:09:40.785984,14.19540264,.0002638,98.7060,127.2004,117.7169,242.4275,0,U,54234,999,18946,.36338E-4,.33E-6,0
METEOSAT-12 (MTG-I1),2022-170C,2026-07-07T17:10:03.785376,1.00266664,.0003972,0.7171,18.3212,82.3437,82.3271,0,U,54743,999,1318,0,.7E-7,0
TIANMU-1 03,2023-039A,2026-07-07T19:20:28.541760,15.47892574,.0003194,97.5247,3.5917,45.1577,314.9932,0,U,55973,999,18402,.19308E-3,.9958E-4,0
TIANMU-1 04,2023-039B,2026-07-07T20:26:43.539648,15.48511315,.000371,97.5180,2.7955,39.3565,320.7955,0,U,55974,999,18404,.19851E-3,.10466E-3,0
TIANMU-1 05,2023-039C,2026-07-07T20:27:19.370592,15.47816773,.0003552,97.5225,3.2477,65.3288,294.8332,0,U,55975,999,18401,.20442E-3,.10522E-3,0
TIANMU-1 06,2023-039D,2026-07-07T20:33:29.536704,15.48409455,.0003707,97.5232,3.9089,58.6286,301.5326,0,U,55976,999,18404,.19753E-3,.10377E-3,0
FENGYUN 3G,2023-055A,2026-07-07T16:40:53.560704,15.53556033,.0007222,49.9916,240.2815,22.5556,337.5727,0,U,56232,999,18319,.24641E-3,.1557E-3,0
METEOR-M2 3,2023-091A,2026-07-07T19:49:12.218304,14.24048507,.0005111,98.6077,243.3807,106.7340,253.4400,0,U,57166,999,15745,.823E-5,-.24E-6,0
TIANMU-1 07,2023-101A,2026-07-07T20:00:15.729696,15.30056949,.0004137,97.2582,239.0292,79.5121,280.6586,0,U,57399,999,16480,.14554E-3,.416E-4,0
TIANMU-1 08,2023-101B,2026-07-07T20:46:19.223328,15.30061485,.0005183,97.2571,238.8280,65.1014,295.0765,0,U,57400,999,16480,.15008E-3,.4293E-4,0
TIANMU-1 09,2023-101C,2026-07-07T20:21:46.217376,15.30100289,.0004721,97.2529,238.2167,81.2770,278.9005,0,U,57401,999,16480,.15077E-3,.4318E-4,0
TIANMU-1 10,2023-101D,2026-07-07T21:09:53.532576,15.30073539,.0006144,97.2608,239.3208,73.5095,286.6821,0,U,57402,999,16480,.15174E-3,.4344E-4,0
FENGYUN 3F,2023-111A,2026-07-07T19:57:57.767904,14.19942632,.0001404,98.6828,258.4552,79.9133,280.2201,0,U,57490,999,15179,.2654E-4,.13E-6,0
ARKTIKA-M 2,2023-198A,2026-07-06T16:49:25.410720,2.00609243,.6907948,63.2193,152.1833,267.3642,18.7597,0,U,58584,999,1871,0,.205E-5,0
TIANMU-1 11,2023-205A,2026-07-07T21:22:36.549984,15.27213964,.0006856,97.3447,210.1243,295.2806,64.7723,0,U,58645,999,14068,.13694E-3,.3581E-4,0
TIANMU-1 12,2023-205B,2026-07-07T20:41:41.702208,15.27043822,.0005481,97.3435,209.8462,268.7232,91.3379,0,U,58646,999,14066,.14817E-3,.3859E-4,0
TIANMU-1 13,2023-205C,2026-07-07T21:29:47.997024,15.27036485,.0005174,97.3463,210.1565,244.5017,115.5687,0,U,58647,999,14066,.13972E-3,.3634E-4,0
TIANMU-1 14,2023-205D,2026-07-07T21:07:37.655616,15.27080575,.0005868,97.3399,209.3069,252.4804,107.5794,0,U,58648,999,14066,.1425E-3,.3713E-4,0
TIANMU-1 19,2023-208A,2026-07-07T20:45:57.070368,15.31898701,.0003926,97.4514,305.2768,227.7671,132.3238,0,U,58660,999,14049,.19048E-3,.5788E-4,0
TIANMU-1 20,2023-208B,2026-07-07T21:17:16.537344,15.33087833,.0005785,97.4457,305.9556,242.1734,117.8923,0,U,58661,999,14059,.17933E-3,.5654E-4,0
